NORAD_CAT_ID,OBJECT_NAME,OBJECT_TYPE,EPOCH,MEAN_MOTION,ECCENTRICITY,INCLINATION,RA_OF_ASC_NODE,ARG_OF_PERICENTER,MEAN_ANOMALY,BSTAR,MEAN_MOTION_DOT,MEAN_MOTION_DDOT,TLE_LINE0,TLE_LINE1,TLE_LINE2,SEMIMAJOR_AXIS,PERIOD,APOGEE,PERIGEE,DECAYED
54797.0,STARLINK-5435,PAYLOAD,2023-12-12 15:23:09,15.08845085,0.0001453,53.217,116.3235,102.5052,257.6103,-0.00012932,-2.346e-05,0.0,0 STARLINK-5435,1 54797U 22175AR  23346.64107748 -.00002346  00000-0 -12932-3 0  9991,2 54797  53.2170 116.3235 0001453 102.5052 257.6103 15.08845085 56426,6917.865,95.437,540.735,538.725,0.0
54797.0,STARLINK-5435,PAYLOAD,2023-12-13 12:03:09,15.08837891,0.0001271,53.2172,112.4601,89.642,270.4718,9.1201e-05,1.164e-05,0.0,0 STARLINK-5435,1 54797U 22175AR  23347.50219401  .00001164  00000-0  91201-4 0  9999,2 54797  53.2172 112.4601 0001271  89.6420 270.4718 15.08837891 54399,6917.887,95.438,540.631,538.873,0.0
54797.0,STARLINK-5435,PAYLOAD,2023-12-13 13:38:32,15.08838869,0.0001293,53.2175,112.1631,90.0396,270.0745,0.00010048,1.312e-05,0.0,0 STARLINK-5435,1 54797U 22175AR  23347.56843337  .00001312  00000-0  10048-3 0  9990,2 54797  53.2175 112.1631 0001293  90.0396 270.0745 15.08838869 56567,6917.884,95.438,540.643,538.854,0.0
54797.0,STARLINK-5435,PAYLOAD,2023-12-14 13:29:20,15.08838356,0.0001229,53.2171,107.7037,79.6585,280.4546,4.3306e-05,4.01e-06,0.0,0 STARLINK-5435,1 54797U 22175AR  23348.56203870  .00000401  00000-0  43306-4 0  9995,2 54797  53.2171 107.7037 0001229  79.6585 280.4546 15.08838356 56717,6917.885,95.438,540.601,538.9,0.0
54797.0,STARLINK-5435,PAYLOAD,2023-12-15 11:44:45,15.08829975,0.0001462,53.2173,103.536,92.4316,267.6843,-5.1238e-05,-1.103e-05,0.0,0 STARLINK-5435,1 54797U 22175AR  23349.48940981 -.00001103  00000-0 -51238-4 0  9993,2 54797  53.2173 103.5360 0001462  92.4316 267.6843 15.08829975 54695,6917.911,95.438,540.787,538.765,0.0
54797.0,STARLINK-5435,PAYLOAD,2023-12-15 13:20:08,15.08829262,0.0001497,53.2173,103.238,96.7341,263.3822,-5.7646e-05,-1.205e-05,0.0,0 STARLINK-5435,1 54797U 22175AR  23349.55565059 -.00001205  00000-0 -57646-4 0  9992,2 54797  53.2173 103.2380 0001497  96.7341 263.3822 15.08829262 56867,6917.913,95.438,540.814,538.743,0.0
54797.0,STARLINK-5435,PAYLOAD,2023-12-16 11:35:31,15.08842836,0.0001232,53.2165,99.0788,92.7468,267.3665,5.4927e-05,5.86e-06,0.0,0 STARLINK-5435,1 54797U 22175AR  23350.48300038  .00000586  00000-0  54927-4 0  9998,2 54797  53.2165  99.0788 0001232  92.7468 267.3665 15.08842836 54842,6917.872,95.437,540.589,538.884,0.0
54797.0,STARLINK-5435,PAYLOAD,2023-12-16 13:10:54,15.08845678,0.000157,53.2165,98.7862,55.9699,304.1442,8.7958e-05,1.112e-05,0.0,0 STARLINK-5435,1 54797U 22175AR  23350.54924040  .00001112  00000-0  87958-4 0  9996,2 54797  53.2165  98.7862 0001570  55.9699 304.1442 15.08845678 57015,6917.863,95.437,540.814,538.642,0.0
54797.0,STARLINK-5435,PAYLOAD,2023-12-16 14:46:17,15.08830202,0.0001558,53.2173,98.4811,93.4132,266.7039,0.00043612,6.658e-05,0.0,0 STARLINK-5435,1 54797U 22175AR  23350.61547701  .00006658  00000-0  43612-3 0  9997,2 54797  53.2173  98.4811 0001558  93.4132 266.7039 15.08830202 57023,6917.91,95.438,540.853,538.698,0.0
54797.0,STARLINK-5435,PAYLOAD,2023-12-17 14:37:04,15.08839549,0.0001547,53.2173,94.0217,84.9729,275.144,0.00014389,2.003e-05,0.0,0 STARLINK-5435,1 54797U 22175AR  23351.60908435  .00002003  00000-0  14389-3 0  9991,2 54797  53.2173  94.0217 0001547  84.9729 275.1440 15.08839549 57179,6917.882,95.438,540.817,538.677,0.0
54797.0,STARLINK-5435,PAYLOAD,2023-12-18 14:27:51,15.0885614,0.000146,53.2172,89.5592,94.2248,265.8911,2.7532e-05,1.5e-06,0.0,0 STARLINK-5435,1 54797U 22175AR  23352.60267464  .00000150  00000-0  27532-4 0  9998,2 54797  53.2172  89.5592 0001460  94.2248 265.8911 15.08856140 57329,6917.831,95.437,540.706,538.686,0.0
54797.0,STARLINK-5435,PAYLOAD,2023-12-19 11:07:52,15.0884273,0.0001294,53.2177,85.6948,106.8853,253.2281,2.9827e-05,1.87e-06,0.0,0 STARLINK-5435,1 54797U 22175AR  23353.46380098  .00000187  00000-0  29827-4 0  9991,2 54797  53.2177  85.6948 0001294 106.8853 253.2281 15.08842730 55298,6917.872,95.437,540.632,538.842,0.0
54797.0,STARLINK-5435,PAYLOAD,2023-12-19 12:43:15,15.0884514,0.0001302,53.2166,85.3986,105.7104,254.4032,6.1871e-05,6.97e-06,0.0,0 STARLINK-5435,1 54797U 22175AR  23353.53003862  .00000697  00000-0  61871-4 0  9991,2 54797  53.2166  85.3986 0001302 105.7104 254.4032 15.08845140 57468,6917.865,95.437,540.63,538.829,0.0
54797.0,STARLINK-5435,PAYLOAD,2023-12-20 10:58:40,15.08836334,0.000161,53.2183,81.2348,88.6467,271.4709,-3.2058e-05,-7.98e-06,0.0,0 STARLINK-5435,1 54797U 22175AR  23354.45740958 -.00000798  00000-0 -32058-4 0  9996,2 54797  53.2183  81.2348 0001610  88.6467 271.4709 15.08836334 55448,6917.892,95.438,540.87,538.643,0.0
54797.0,STARLINK-5435,PAYLOAD,2023-12-20 12:34:03,15.08835552,0.0001732,53.2181,80.9415,60.911,299.2056,1.0699e-05,-1.18e-06,0.0,0 STARLINK-5435,1 54797U 22175AR  23354.52365221 -.00000118  00000-0  10699-4 0  9992,2 54797  53.2181  80.9415 0001732  60.9110 299.2056 15.08835552 57615,6917.894,95.438,540.957,538.561,0.0
54797.0,STARLINK-5435,PAYLOAD,2023-12-21 12:24:49,15.08851146,0.0001517,53.2172,76.4758,84.0699,276.0466,0.00021902,3.2e-05,0.0,0 STARLINK-5435,1 54797U 22175AR  23355.51724343  .00003200  00000-0  21902-3 0  9998,2 54797  53.2172  76.4758 0001517  84.0699 276.0466 15.08851146 55607,6917.846,95.437,540.761,538.662,0.0
54797.0,STARLINK-5435,PAYLOAD,2023-12-22 12:15:37,15.08845592,0.0001563,53.218,72.023,95.9529,264.1641,0.00016537,2.345e-05,0.0,0 STARLINK-5435,1 54797U 22175AR  23356.51084845  .00002345  00000-0  16537-3 0  9992,2 54797  53.2180  72.0230 0001563  95.9529 264.1641 15.08845592 55754,6917.863,95.437,540.81,538.647,0.0
54797.0,STARLINK-5435,PAYLOAD,2023-12-23 12:06:24,15.08841876,0.0001558,53.2178,67.554,92.5084,267.6086,2.7721e-05,1.53e-06,0.0,0 STARLINK-5435,1 54797U 22175AR  23357.50444786  .00000153  00000-0  27721-4 0  9999,2 54797  53.2178  67.5540 0001558  92.5084 267.6086 15.08841876 55906,6917.875,95.437,540.817,538.662,0.0
54797.0,STARLINK-5435,PAYLOAD,2023-12-23 13:41:47,15.08846012,0.0001685,53.2163,67.2609,71.273,288.8445,0.00015457,2.173e-05,0.0,0 STARLINK-5435,1 54797U 22175AR  23357.57068899  .00002173  00000-0  15457-3 0  9999,2 54797  53.2163  67.2609 0001685  71.2730 288.8445 15.08846012 58078,6917.862,95.437,540.893,538.561,0.0
54797.0,STARLINK-5435,PAYLOAD,2023-12-24 13:32:34,15.08852524,0.0001475,53.2181,62.7947,100.6413,259.4745,0.00016756,2.381e-05,0.0,0 STARLINK-5435,1 54797U 22175AR  23358.56428539  .00002381  00000-0  16756-3 0  9994,2 54797  53.2181  62.7947 0001475 100.6413 259.4745 15.08852524 58224,6917.842,95.437,540.727,538.687,0.0
54797.0,STARLINK-5435,PAYLOAD,2023-12-25 03:51:03,15.08835669,9.51e-05,53.2172,60.1236,94.5837,265.5264,-8.5754e-05,-1.652e-05,0.0,0 STARLINK-5435,1 54797U 22175AR  23359.16045340 -.00001652  00000-0 -85754-4 0  9993,2 54797  53.2172  60.1236 0000951  94.5837 265.5264 15.08835669 56151,6917.894,95.438,540.417,539.101,0.0
54797.0,STARLINK-5435,PAYLOAD,2023-12-25 11:47:58,15.08844524,0.0001478,53.2166,58.6395,88.1607,271.9554,0.00012069,1.634e-05,0.0,0 STARLINK-5435,1 54797U 22175AR  23359.49165062  .00001634  00000-0  12069-3 0  9999,2 54797  53.2166  58.6395 0001478  88.1607 271.9554 15.08844524 56200,6917.867,95.437,540.754,538.709,0.0
54797.0,STARLINK-5435,PAYLOAD,2023-12-25 13:23:21,15.08853154,0.0001405,53.2164,58.3394,107.9819,252.1326,0.0002787,4.152e-05,0.0,0 STARLINK-5435,1 54797U 22175AR  23359.55788617  .00004152  00000-0  27870-3 0  9997,2 54797  53.2164  58.3394 0001405 107.9819 252.1326 15.08853154 58376,6917.84,95.437,540.677,538.733,0.0
54797.0,STARLINK-5435,PAYLOAD,2023-12-26 03:41:50,15.08833738,0.0001676,53.2172,55.6667,74.1478,285.9699,1.7296e-05,-1.3e-07,0.0,0 STARLINK-5435,1 54797U 22175AR  23360.15405836 -.00000013  00000-0  17296-4 0  9999,2 54797  53.2172  55.6667 0001676  74.1478 285.9699 15.08833738 56308,6917.9,95.438,540.924,538.605,0.0
54797.0,STARLINK-5435,PAYLOAD,2023-12-26 10:03:23,15.08833443,0.000179,53.2167,54.4769,73.6787,286.4402,2.2947e-05,7.7e-07,0.0,0 STARLINK-5435,1 54797U 22175AR  23360.41902033  .00000077  00000-0  22947-4 0  9997,2 54797  53.2167  54.4769 0001790  73.6787 286.4402 15.08833443 58501,6917.9,95.438,541.004,538.527,0.0
54797.0,STARLINK-5435,PAYLOAD,2023-12-26 22:46:28,15.0884364,0.0001495,53.2168,52.0958,90.6799,269.4365,0.00017756,2.539e-05,0.0,0 STARLINK-5435,1 54797U 22175AR  23360.94893581  .00002539  00000-0  17756-3 0  9998,2 54797  53.2168  52.0958 0001495  90.6799 269.4365 15.08843640 56428,6917.869,95.437,540.768,538.7,0.0
54797.0,STARLINK-5435,PAYLOAD,2023-12-27 09:54:10,15.08847993,0.000159,53.2164,50.0147,89.1353,270.9821,0.00035721,5.403e-05,0.0,0 STARLINK-5435,1 54797U 22175AR  23361.41261660  .00005403  00000-0  35721-3 0  9993,2 54797  53.2164  50.0147 0001590  89.1353 270.9821 15.08847993 58653,6917.856,95.437,540.821,538.621,0.0
54797.0,STARLINK-5435,PAYLOAD,2023-12-28 03:23:24,15.08844952,0.0001485,53.2169,46.7432,98.0364,262.0797,0.00028176,4.2e-05,0.0,0 STARLINK-5435,1 54797U 22175AR  23362.14125723  .00004200  00000-0  28176-3 0  9993,2 54797  53.2169  46.7432 0001485  98.0364 262.0797 15.08844952 56600,6917.865,95.437,540.758,538.703,0.0
54797.0,STARLINK-5435,PAYLOAD,2023-12-28 09:44:57,15.0884268,0.0001788,53.217,45.5539,105.9967,254.1222,0.00015705,2.212e-05,0.0,0 STARLINK-5435,1 54797U 22175AR  23362.40621650  .00002212  00000-0  15705-3 0  9997,2 54797  53.2170  45.5539 0001788 105.9967 254.1222 15.08842680 58805,6917.872,95.437,540.974,538.5,0.0
54797.0,STARLINK-5435,PAYLOAD,2023-12-29 03:14:11,15.08838685,0.0002136,53.2182,42.2856,113.9474,246.1742,1.2518e-05,-8.9e-07,0.0,0 STARLINK-5435,1 54797U 22175AR  23363.13485807 -.00000089  00000-0  12518-4 0  9991,2 54797  53.2182  42.2856 0002136 113.9474 246.1742 15.08838685 56754,6917.884,95.438,541.227,538.272,0.0
